{
    "links": {
        "self": "http://www.neowsapp.com/rest/v1/neo/3655974?api_key=iIulBulltgU6a56xZRHN4H3l9WmuAYTsLGpBGhQ2"
    },
    "id": "3655974",
    "neo_reference_id": "3655974",
    "name": "(2014 AK51)",
    "designation": "2014 AK51",
    "nasa_jpl_url": "http://ssd.jpl.nasa.gov/sbdb.cgi?sstr=3655974",
    "absolute_magnitude_h": 26.6,
    "estimated_diameter": {
        "kilometers": {
            "estimated_diameter_min": 0.0127219879,
            "estimated_diameter_max": 0.0284472297
        },
        "meters": {
            "estimated_diameter_min": 12.7219878539,
            "estimated_diameter_max": 28.4472296503
        },
        "miles": {
            "estimated_diameter_min": 0.0079050743,
            "estimated_diameter_max": 0.0176762835
        },
        "feet": {
            "estimated_diameter_min": 41.7388066307,
            "estimated_diameter_max": 93.330808926
        }
    },
    "is_potentially_hazardous_asteroid": false,
    "close_approach_data": [
        {
            "close_approach_date": "1919-02-25",
            "close_approach_date_full": "1919-Feb-25 21:13",
            "epoch_date_close_approach": -1604630820000,
            "relative_velocity": {
                "kilometers_per_second": "20.3469203016",
                "kilometers_per_hour": "73248.9130856758",
                "miles_per_hour": "45514.0260225967"
            },
            "miss_distance": {
                "astronomical": "0.2105237244",
                "lunar": "81.8937287916",
                "kilometers": "31493900.754707028",
                "miles": "19569402.4837238664"
            },
            "orbiting_body": "Earth"
        },
        {
            "close_approach_date": "1961-02-27",
            "close_approach_date_full": "1961-Feb-27 08:36",
            "epoch_date_close_approach": -279041040000,
            "relative_velocity": {
                "kilometers_per_second": "22.852282911",
                "kilometers_per_hour": "82268.2184795806",
                "miles_per_hour": "51118.2716436038"
            },
            "miss_distance": {
                "astronomical": "0.3493210769",
                "lunar": "135.8858989141",
                "kilometers": "52257689.050346203",
                "miles": "32471422.2560274814"
            },
            "orbiting_body": "Earth"
        },
        {
            "close_approach_date": "1972-05-09",
            "close_approach_date_full": "1972-May-09 04:22",
            "epoch_date_close_approach": 74233320000,
            "relative_velocity": {
                "kilometers_per_second": "7.0490662161",
                "kilometers_per_hour": "25376.6383781058",
                "miles_per_hour": "15768.0562188847"
            },
            "miss_distance": {
                "astronomical": "0.9323909961",
                "lunar": "362.7000974829",
                "kilometers": "139483707.023738307",
                "miles": "86671156.5496183566"
            },
            "orbiting_body": "Juptr"
        },
        {
            "close_approach_date": "2014-01-07",
            "close_approach_date_full": "2014-Jan-07 23:05",
            "epoch_date_close_approach": 1389135900000,
            "relative_velocity": {
                "kilometers_per_second": "8.9848746475",
                "kilometers_per_hour": "32345.5487311731",
                "miles_per_hour": "20098.2660991003"
            },
            "miss_distance": {
                "astronomical": "0.0014163839",
                "lunar": "0.5509733371",
                "kilometers": "211888.014542293",
                "miles": "131661.1070299234"
            },
            "orbiting_body": "Moon"
        },
        {
            "close_approach_date": "2014-01-08",
            "close_approach_date_full": "2014-Jan-08 09:09",
            "epoch_date_close_approach": 1389172140000,
            "relative_velocity": {
                "kilometers_per_second": "9.2752065222",
                "kilometers_per_hour": "33390.7434799836",
                "miles_per_hour": "20747.7094695487"
            },
            "miss_distance": {
                "astronomical": "0.0024683234",
                "lunar": "0.9601778026",
                "kilometers": "369255.923111158",
                "miles": "229444.9911156604"
            },
            "orbiting_body": "Earth"
        }
    ],
    "orbital_data": {
        "orbit_id": "5",
        "orbit_determination_date": "2017-08-10 06:17:41",
        "first_observation_date": "2014-01-07",
        "last_observation_date": "2014-01-13",
        "data_arc_in_days": 6,
        "observations_used": 27,
        "orbit_uncertainty": "7",
        "minimum_orbit_intersection": ".00168147",
        "jupiter_tisserand_invariant": "2.917",
        "epoch_osculation": "2459000.5",
        "eccentricity": ".6615595756030191",
        "semi_major_axis": "2.889829002357935",
        "inclination": "2.47210079821034",
        "ascending_node_longitude": "105.1769402580245",
        "orbital_period": "1794.347875758874",
        "perihelion_distance": ".9780349539927234",
        "perihelion_argument": "347.999899082336",
        "aphelion_distance": "4.801623050723147",
        "perihelion_time": "2458479.577334813295",
        "mean_anomaly": "104.5127101610114",
        "mean_motion": ".2006299920230057",
        "equinox": "J2000",
        "orbit_class": {
            "orbit_class_type": "APO",
            "orbit_class_description": "Near-Earth asteroid orbits which cross the Earth’s orbit similar to that of 1862 Apollo",
            "orbit_class_range": "a (semi-major axis) > 1.0 AU; q (perihelion) < 1.017 AU"
        }
    },
    "is_sentry_object": false
}